NORAD_CAT_ID,OBJECT_NAME,OBJECT_TYPE,EPOCH,MEAN_MOTION,ECCENTRICITY,INCLINATION,RA_OF_ASC_NODE,ARG_OF_PERICENTER,MEAN_ANOMALY,BSTAR,MEAN_MOTION_DOT,MEAN_MOTION_DDOT,TLE_LINE0,TLE_LINE1,TLE_LINE2,SEMIMAJOR_AXIS,PERIOD,APOGEE,PERIGEE,DECAYED
56769.0,STARLINK-5978,PAYLOAD,2024-02-22 03:45:49,14.98315986,0.0003036,69.9987,86.734,268.663,91.4181,9.6934e-05,1.063e-05,0.0,0 STARLINK-5978,1 56769U 23078C   24053.15682030  .00001063  00000-0  96934-4 0  9997,2 56769  69.9987  86.7340 0003036 268.6630  91.4181 14.98315986 40624,6950.236,96.108,574.211,569.991,0.0
56769.0,STARLINK-5978,PAYLOAD,2024-02-22 11:46:29,14.9831787,0.0003044,69.9987,85.8928,269.4638,90.6172,0.00012677,1.419e-05,0.0,0 STARLINK-5978,1 56769U 23078C   24053.49062120  .00001419  00000-0  12677-3 0  9992,2 56769  69.9987  85.8928 0003044 269.4638  90.6172 14.98317870 40414,6950.23,96.108,574.211,569.98,0.0
56769.0,STARLINK-5978,PAYLOAD,2024-02-23 03:47:50,14.98325231,0.0003011,69.9987,84.2091,268.8337,91.2477,9.3989e-05,1.028e-05,0.0,0 STARLINK-5978,1 56769U 23078C   24054.15822081  .00001028  00000-0  93989-4 0  9998,2 56769  69.9987  84.2091 0003011 268.8337  91.2477 14.98325231 40775,6950.208,96.107,574.165,569.98,0.0
56769.0,STARLINK-5978,PAYLOAD,2024-02-23 11:48:30,14.98320777,0.0002819,69.9988,83.3677,266.1055,93.9781,0.00019654,2.252e-05,0.0,0 STARLINK-5978,1 56769U 23078C   24054.49202211  .00002252  00000-0  19654-3 0  9998,2 56769  69.9988  83.3677 0002819 266.1055  93.9781 14.98320777 40563,6950.221,96.108,574.046,570.127,0.0
56769.0,STARLINK-5978,PAYLOAD,2024-02-24 03:49:50,14.98330477,0.0003152,69.9987,81.6847,268.4207,91.6591,0.00013598,1.53e-05,0.0,0 STARLINK-5978,1 56769U 23078C   24055.15961692  .00001530  00000-0  13598-3 0  9996,2 56769  69.9987  81.6847 0003152 268.4207  91.6591 14.98330477 40929,6950.191,96.107,574.247,569.866,0.0
56769.0,STARLINK-5978,PAYLOAD,2024-02-24 11:50:30,14.98335869,0.0003029,69.9987,80.8427,269.3559,90.7253,0.00010482,1.158e-05,0.0,0 STARLINK-5978,1 56769U 23078C   24055.49341408  .00001158  00000-0  10482-3 0  9995,2 56769  69.9987  80.8427 0003029 269.3559  90.7253 14.98335869 40719,6950.175,96.107,574.145,569.935,0.0
56769.0,STARLINK-5978,PAYLOAD,2024-02-25 03:51:50,14.98359125,0.0002318,69.9986,79.1594,254.5438,105.5465,-0.00020878,-2.585e-05,0.0,0 STARLINK-5978,1 56769U 23078C   24056.16100607 -.00002585  00000-0 -20878-3 0  9991,2 56769  69.9986  79.1594 0002318 254.5438 105.5465 14.98359125 41077,6950.103,96.105,573.579,570.357,0.0
56769.0,STARLINK-5978,PAYLOAD,2024-02-25 11:52:30,14.98365585,0.0002141,69.9988,78.3176,249.9253,110.1676,-0.00027915,-3.425e-05,0.0,0 STARLINK-5978,1 56769U 23078C   24056.49479786 -.00003425  00000-0 -27915-3 0  9997,2 56769  69.9988  78.3176 0002141 249.9253 110.1676 14.98365585 40862,6950.083,96.105,573.436,570.46,0.0
56769.0,STARLINK-5978,PAYLOAD,2024-02-25 18:17:03,14.98339679,0.0002934,69.999,77.6443,270.2176,89.8647,0.00012651,1.417e-05,0.0,0 STARLINK-5978,1 56769U 23078C   24056.76184288  .00001417  00000-0  12651-3 0  9995,2 56769  69.9990  77.6443 0002934 270.2176  89.8647 14.98339679 41164,6950.163,96.106,574.067,569.989,0.0
56769.0,STARLINK-5978,PAYLOAD,2024-02-26 10:18:23,14.98342132,0.0002953,69.9989,75.9612,269.0328,91.0492,2.1429e-05,1.63e-06,0.0,0 STARLINK-5978,1 56769U 23078C   24057.42943822  .00000163  00000-0  21429-4 0  9997,2 56769  69.9989  75.9612 0002953 269.0328  91.0492 14.98342132 41001,6950.155,96.106,574.073,569.968,0.0
56769.0,STARLINK-5978,PAYLOAD,2024-02-27 03:55:52,14.98335843,0.0002734,69.9997,74.111,261.178,98.907,-8.451e-05,-1.101e-05,0.0,0 STARLINK-5978,1 56769U 23078C   24058.16379992 -.00001101  00000-0 -84510-4 0  9995,2 56769  69.9997  74.1110 0002734 261.1780  98.9070 14.98335843 41375,6950.175,96.107,573.94,570.14,0.0
56769.0,STARLINK-5978,PAYLOAD,2024-02-27 10:20:24,14.98334581,0.0003114,69.9987,73.4358,268.8926,91.1876,-0.00011967,-1.521e-05,0.0,0 STARLINK-5978,1 56769U 23078C   24058.43084085 -.00001521  00000-0 -11967-3 0  9992,2 56769  69.9987  73.4358 0003114 268.8926  91.1876 14.98334581 41152,6950.179,96.107,574.208,569.879,0.0
56769.0,STARLINK-5978,PAYLOAD,2024-02-27 18:21:04,14.98334652,0.0003025,69.9991,72.5931,270.8718,89.2095,-0.00012592,-1.595e-05,0.0,0 STARLINK-5978,1 56769U 23078C   24058.76464024 -.00001595  00000-0 -12592-3 0  9999,2 56769  69.9991  72.5931 0003025 270.8718  89.2095 14.98334652 41203,6950.179,96.107,574.146,569.941,0.0
56769.0,STARLINK-5978,PAYLOAD,2024-02-28 03:57:53,14.98331646,0.0003003,69.9989,71.5846,267.6979,92.3836,-7.3266e-05,-9.67e-06,0.0,0 STARLINK-5978,1 56769U 23078C   24059.16519997 -.00000967  00000-0 -73266-4 0  9992,2 56769  69.9989  71.5846 0003003 267.6979  92.3836 14.98331646 41526,6950.188,96.107,574.14,569.966,0.0
56769.0,STARLINK-5978,PAYLOAD,2024-02-28 10:22:25,14.98332372,0.0003057,69.9988,70.9113,266.9351,93.1458,-5.7993e-05,-7.85e-06,0.0,0 STARLINK-5978,1 56769U 23078C   24059.43223861 -.00000785  00000-0 -57993-4 0  9991,2 56769  69.9988  70.9113 0003057 266.9351  93.1458 14.98332372 41302,6950.186,96.107,574.175,569.926,0.0
56769.0,STARLINK-5978,PAYLOAD,2024-02-28 18:23:06,14.98301587,0.0003017,69.9988,70.0695,287.1838,72.8991,0.00050606,5.946e-05,0.0,0 STARLINK-5978,1 56769U 23078C   24059.76604780  .00005946  00000-0  50606-3 0  9995,2 56769  69.9988  70.0695 0003017 287.1838  72.8991 14.98301587 41613,6950.281,96.109,574.243,570.049,0.0
56769.0,STARLINK-5978,PAYLOAD,2024-02-29 03:59:53,14.98329628,0.0003082,69.9987,69.0593,267.348,92.7326,6.2498e-05,6.53e-06,0.0,0 STARLINK-5978,1 56769U 23078C   24060.16659647  .00000653  00000-0  62498-4 0  9996,2 56769  69.9987  69.0593 0003082 267.3480  92.7326 14.98329628 41677,6950.194,96.107,574.201,569.917,0.0
56769.0,STARLINK-5978,PAYLOAD,2024-02-29 10:24:26,14.98330994,0.0003074,69.9987,68.386,267.4465,92.6343,7.3221e-05,7.81e-06,0.0,0 STARLINK-5978,1 56769U 23078C   24060.43363535  .00000781  00000-0  73221-4 0  9992,2 56769  69.9987  68.3860 0003074 267.4465  92.6343 14.98330994 41453,6950.19,96.107,574.191,569.918,0.0
56769.0,STARLINK-5978,PAYLOAD,2024-03-01 04:01:55,14.98328462,0.0003041,69.9988,66.5343,267.451,92.6301,2.2908e-05,1.8e-06,0.0,0 STARLINK-5978,1 56769U 23078C   24061.16799846  .00000180  00000-0  22908-4 0  9990,2 56769  69.9988  66.5343 0003041 267.4510  92.6301 14.98328462 41827,6950.198,96.107,574.176,569.949,0.0
56769.0,STARLINK-5978,PAYLOAD,2024-03-01 10:26:27,14.98328781,0.0003047,69.9989,65.861,267.5624,92.5186,1.274e-05,5.9e-07,0.0,0 STARLINK-5978,1 56769U 23078C   24061.43503879  .00000059  00000-0  12740-4 0  9997,2 56769  69.9989  65.8610 0003047 267.5624  92.5186 14.98328781 41600,6950.197,96.107,574.179,569.944,0.0
56769.0,STARLINK-5978,PAYLOAD,2024-03-02 04:03:55,14.98334339,0.0003019,69.9989,64.0092,267.664,92.4174,1.7808e-05,1.19e-06,0.0,0 STARLINK-5978,1 56769U 23078C   24062.16939428  .00000119  00000-0  17808-4 0  9998,2 56769  69.9989  64.0092 0003019 267.6640  92.4174 14.98334339 41975,6950.179,96.107,574.143,569.946,0.0
56769.0,STARLINK-5978,PAYLOAD,2024-03-02 10:28:27,14.98335328,0.000298,69.9991,63.3363,266.958,93.1238,3.1222e-05,2.8e-06,0.0,0 STARLINK-5978,1 56769U 23078C   24062.43643258  .00000280  00000-0  31222-4 0  9996,2 56769  69.9991  63.3363 0002980 266.9580  93.1238 14.98335328 41756,6950.176,96.107,574.113,569.97,0.0
56769.0,STARLINK-5978,PAYLOAD,2024-03-02 16:53:00,14.98334294,0.0002862,69.9995,62.662,270.1308,89.9523,-9.4528e-05,-1.221e-05,0.0,0 STARLINK-5978,1 56769U 23078C   24062.70347631 -.00001221  00000-0 -94528-4 0  9998,2 56769  69.9995  62.6620 0002862 270.1308  89.9523 14.98334294 41797,6950.18,96.107,574.034,570.055,0.0
56769.0,STARLINK-5978,PAYLOAD,2024-03-03 04:05:56,14.98328664,0.0002942,69.9994,61.4851,268.3771,91.7051,-6.8352e-06,-1.75e-06,0.0,0 STARLINK-5978,1 56769U 23078C   24063.17079836 -.00000175  00000-0 -68352-5 0  9993,2 56769  69.9994  61.4851 0002942 268.3771  91.7051 14.98328664 42120,6950.197,96.107,574.107,570.017,0.0
56769.0,STARLINK-5978,PAYLOAD,2024-03-03 10:30:29,14.98324977,0.0002787,69.9997,60.811,266.2736,93.8104,-1.6651e-05,-2.92e-06,0.0,0 STARLINK-5978,1 56769U 23078C   24063.43784130 -.00000292  00000-0 -16651-4 0  9996,2 56769  69.9997  60.8110 0002787 266.2736  93.8104 14.98324977 41909,6950.208,96.107,574.01,570.136,0.0
56769.0,STARLINK-5978,PAYLOAD,2024-03-04 04:07:57,14.98333437,0.0002925,69.9993,58.9597,269.1357,90.9466,7.2726e-06,-6e-08,0.0,0 STARLINK-5978,1 56769U 23078C   24064.17219452 -.00000006  00000-0  72726-5 0  9996,2 56769  69.9993  58.9597 0002925 269.1357  90.9466 14.98333437 42278,6950.182,96.107,574.08,570.014,0.0
56769.0,STARLINK-5978,PAYLOAD,2024-03-04 08:56:21,14.98334526,0.0002886,69.9995,58.4548,268.699,91.3838,2.5965e-05,2.17e-06,0.0,0 STARLINK-5978,1 56769U 23078C   24064.37247298  .00000217  00000-0  25965-4 0  9992,2 56769  69.9995  58.4548 0002886 268.6990  91.3838 14.98334526 42047,6950.179,96.107,574.05,570.038,0.0
56769.0,STARLINK-5978,PAYLOAD,2024-03-04 16:57:02,14.98327732,0.0002719,70.0001,57.6125,267.8015,92.2833,6.3913e-05,6.7e-06,0.0,0 STARLINK-5978,1 56769U 23078C   24064.70627610  .00000670  00000-0  63913-4 0  9997,2 56769  70.0001  57.6125 0002719 267.8015  92.2833 14.98327732 42095,6950.2,96.107,573.955,570.175,0.0
56769.0,STARLINK-5978,PAYLOAD,2024-03-05 04:09:58,14.98328513,0.0002942,69.9993,56.4341,268.4386,91.6436,4.6112e-05,4.57e-06,0.0,0 STARLINK-5978,1 56769U 23078C   24065.17359531  .00000457  00000-0  46112-4 0  9998,2 56769  69.9993  56.4341 0002942 268.4386  91.6436 14.98328513 42422,6950.197,96.107,574.107,570.018,0.0
56769.0,STARLINK-5978,PAYLOAD,2024-03-05 08:58:22,14.98328341,0.0002847,69.9995,55.9294,265.4217,94.6617,5.549e-05,5.69e-06,0.0,0 STARLINK-5978,1 56769U 23078C   24065.37387524  .00000569  00000-0  55490-4 0  9996,2 56769  69.9995  55.9294 0002847 265.4217  94.6617 14.98328341 42196,6950.198,96.107,574.042,570.084,0.0
